{
  "norad_id": 62039,
  "name": "STARLINK-32480",
  "history": [
    {
      "epoch": "2026-04-17T03:20:15.314496Z",
      "apogee_km": 483.9216744002597,
      "perigee_km": 482.2531618462608,
      "latitude_deg": -5.989644528707033e-05,
      "longitude_deg": 144.03941286563514,
      "height_km": 482.93703269978107,
      "semi_major_axis_km": 6861.22441812326,
      "eccentricity": 0.00012159,
      "inclination_deg": 43.0045,
      "raan_deg": 39.38,
      "arg_perigee_deg": 265.0095,
      "mean_anomaly_deg": 95.0617,
      "mean_motion_rev_day": 15.27567202
    },
    {
      "epoch": "2026-04-18T12:17:31.548480Z",
      "apogee_km": 484.25823430294986,
      "perigee_km": 481.7094651296975,
      "latitude_deg": -1.3629187668415995e-05,
      "longitude_deg": 0.6098279815177657,
      "height_km": 483.09131018142637,
      "semi_major_axis_km": 6861.120849716323,
      "eccentricity": 0.00018574,
      "inclination_deg": 43.0085,
      "raan_deg": 31.6214,
      "arg_perigee_deg": 255.0136,
      "mean_anomaly_deg": 105.051,
      "mean_motion_rev_day": 15.2760179
    },
    {
      "epoch": "2026-04-19T11:49:51.915072Z",
      "apogee_km": 483.71062327726486,
      "perigee_km": 482.29064223279056,
      "latitude_deg": -3.5453936461434115e-05,
      "longitude_deg": 1.0220312891166983,
      "height_km": 482.565406842592,
      "semi_major_axis_km": 6861.137632755028,
      "eccentricity": 0.00010348,
      "inclination_deg": 43.0068,
      "raan_deg": 26.0852,
      "arg_perigee_deg": 287.4041,
      "mean_anomaly_deg": 72.6697,
      "mean_motion_rev_day": 15.27596185
    },
    {
      "epoch": "2026-04-20T11:22:11.810784Z",
      "apogee_km": 485.10806583068097,
      "perigee_km": 480.67433218791666,
      "latitude_deg": 6.160633627720882e-06,
      "longitude_deg": 1.4315685461033296,
      "height_km": 483.32066254053734,
      "semi_major_axis_km": 6861.028199009298,
      "eccentricity": 0.00032311,
      "inclination_deg": 43.0079,
      "raan_deg": 20.5443,
      "arg_perigee_deg": 252.929,
      "mean_anomaly_deg": 107.1208,
      "mean_motion_rev_day": 15.27632733
    },
    {
      "epoch": "2026-04-21T10:54:32.451264Z",
      "apogee_km": 484.3049781809432,
      "perigee_km": 481.7910399936136,
      "latitude_deg": 5.1198566549155605e-05,
      "longitude_deg": 1.8396970863825781,
      "height_km": 483.15662660403876,
      "semi_major_axis_km": 6861.185009087279,
      "eccentricity": 0.0001832,
      "inclination_deg": 43.008,
      "raan_deg": 15.0051,
      "arg_perigee_deg": 254.7425,
      "mean_anomaly_deg": 105.3225,
      "mean_motion_rev_day": 15.27580363
    },
    {
      "epoch": "2026-04-22T02:36:06.849504Z",
      "apogee_km": 484.43307868428474,
      "perigee_km": 481.6670597292041,
      "latitude_deg": 2.459579266596632e-05,
      "longitude_deg": 122.11085700695533,
      "height_km": 483.3458661381707,
      "semi_major_axis_km": 6861.187069206744,
      "eccentricity": 0.00020157,
      "inclination_deg": 43.0075,
      "raan_deg": 11.3141,
      "arg_perigee_deg": 248.0055,
      "mean_anomaly_deg": 112.0583,
      "mean_motion_rev_day": 15.27579675
    },
    {
      "epoch": "2026-04-23T00:34:19.056288Z",
      "apogee_km": 484.6398007217649,
      "perigee_km": 481.4725367312176,
      "latitude_deg": 4.915887216623746e-06,
      "longitude_deg": 146.48689401787456,
      "height_km": 483.52585267998376,
      "semi_major_axis_km": 6861.193168726491,
      "eccentricity": 0.00023081,
      "inclination_deg": 43.0089,
      "raan_deg": 6.1433,
      "arg_perigee_deg": 244.107,
      "mean_anomaly_deg": 115.9544,
      "mean_motion_rev_day": 15.27577638
    },
    {
      "epoch": "2026-04-24T09:31:36.256224Z",
      "apogee_km": 484.3734154144913,
      "perigee_km": 481.68246652464313,
      "latitude_deg": 1.475057424570209e-05,
      "longitude_deg": 3.060231382176352,
      "height_km": 483.0518478226577,
      "semi_major_axis_km": 6861.164940969567,
      "eccentricity": 0.0001961,
      "inclination_deg": 43.0033,
      "raan_deg": 358.3917,
      "arg_perigee_deg": 259.4453,
      "mean_anomaly_deg": 100.6178,
      "mean_motion_rev_day": 15.27587065
    },
    {
      "epoch": "2026-04-25T09:03:57.233664Z",
      "apogee_km": 483.5513863096494,
      "perigee_km": 482.4879070294155,
      "latitude_deg": -1.7464105076573603e-05,
      "longitude_deg": 3.4649715018628533,
      "height_km": 482.7503001869156,
      "semi_major_axis_km": 6861.156646669532,
      "eccentricity": 7.75e-05,
      "inclination_deg": 43.0084,
      "raan_deg": 352.8506,
      "arg_perigee_deg": 275.0109,
      "mean_anomaly_deg": 85.0654,
      "mean_motion_rev_day": 15.27589835
    },
    {
      "epoch": "2026-04-26T16:27:05.204160Z",
      "apogee_km": 483.26412361452185,
      "perigee_km": 482.7367765901063,
      "latitude_deg": -4.2593320497629037e-05,
      "longitude_deg": -115.98892398613317,
      "height_km": 482.7843189308654,
      "semi_major_axis_km": 6861.137450102314,
      "eccentricity": 3.843e-05,
      "inclination_deg": 43.0003,
      "raan_deg": 345.4689,
      "arg_perigee_deg": 91.9183,
      "mean_anomaly_deg": 268.1712,
      "mean_motion_rev_day": 15.27596246
    }
  ]
}